ONEWEB-0589             
1 54655U 22166P   26167.21276345  .00000076  00000+0  15195-3 0  9990
2 54655  87.9252 244.1751 0002413  78.9020 281.2386 13.21824524171416
ONEWEB-0590             
1 54656U 22166Q   26167.23786670  .00000113  00000+0  24240-3 0  9993
2 54656  87.9263 244.1603 0002512 100.5878 259.5539 13.21827370171407
ONEWEB-0591             
1 54657U 22166R   26167.24978753  .00000117  00000+0  25145-3 0  9999
2 54657  87.9253 244.1728 0002100  98.7126 261.4246 13.21826710171439
ONEWEB-0592             
1 54658U 22166S   26167.25313742 -.00000394  00000+0 -98450-3 0  9990
2 54658  87.9263 244.1502 0002146 100.5453 259.5923 13.21830362171311
ONEWEB-0593             
1 54659U 22166T   26167.19930088  .00000034  00000+0  49979-4 0  9994
2 54659  87.9256 244.1725 0001927  94.9208 265.2147 13.21824506171417
ONEWEB-0594             
1 54660U 22166U   26167.29520140 -.00000053  00000+0 -15902-3 0  9992
2 54660  87.9253 244.1697 0001883 102.7650 257.3695 13.21827132171445
ONEWEB-0595             
1 54661U 22166V   26167.27163805  .00000039  00000+0  63143-4 0  9995
2 54661  87.9262 244.1550 0002089 105.3563 254.7802 13.21827503171415
ONEWEB-0596             
1 54662U 22166W   26167.24641792  .00000068  00000+0  13262-3 0  9997
2 54662  87.9257 244.1717 0002077 101.9472 258.1895 13.21827079171411
ONEWEB-0597             
1 54663U 22166X   26167.22791340  .00000139  00000+0  30422-3 0  9997
2 54663  87.9253 244.1783 0002036  95.3622 264.7744 13.21827215171417
ONEWEB-0600             
1 54664U 22166Y   26167.20939693  .00000094  00000+0  19598-3 0  9992
2 54664  87.9254 244.1734 0001824  96.6184 263.5158 13.21824861171382
ONEWEB-0601             
1 54665U 22166Z   26167.20099287  .00000073  00000+0  14558-3 0  9997
2 54665  87.9253 244.1913 0002097  92.0230 268.1144 13.21825876171570
ONEWEB-0602             
1 54666U 22166AA  26167.24220596  .00000111  00000+0  23613-3 0  9996
2 54666  87.9253 244.1890 0001773  95.3148 264.8189 13.21826722171426
ONEWEB-0603             
1 54667U 22166AB  26167.24810267  .00000107  00000+0  22688-3 0  9993
2 54667  87.9264 244.1448 0001996  96.3748 263.7613 13.21826421171350
ONEWEB-0604             
1 54668U 22166AC  26167.23631361  .00000076  00000+0  15151-3 0  9991
2 54668  87.9263 244.1624 0002013 101.5963 258.5397 13.21827956171316
ONEWEB-0605             
1 54669U 22166AD  26167.22960053  .00000118  00000+0  25465-3 0  9990
2 54669  87.9254 244.1774 0002539  90.1612 269.9813 13.21826607171388
ONEWEB-0606             
1 54670U 22166AE  26167.25146436  .00000128  00000+0  27770-3 0  9998
2 54670  87.9256 244.1857 0002018 104.0217 256.1141 13.21827136171449
ONEWEB-0607             
1 54671U 22166AF  26167.29350552  .00000016  00000+0  63355-5 0  9996
2 54671  87.9261 244.1480 0001937  94.5325 265.6030 13.21824432171426
ONEWEB-0608             
1 54672U 22166AG  26167.22453497  .00000136  00000+0  29712-3 0  9992
2 54672  87.9264 244.1584 0002277  86.5454 273.5941 13.21828085171424
ONEWEB-0610             
1 54673U 22166AH  26167.28004809 -.00000001  00000+0 -34619-4 0  9994
2 54673  87.9254 244.1618 0002084  81.4181 278.7190 13.21824263171336
ONEWEB-0611             
1 54674U 22166AJ  26167.27330660 -.00000008  00000+0 -51375-4 0  9996
2 54674  87.9254 244.1592 0002037 102.8529 257.2833 13.21827677171327
ONEWEB-0612             
1 54675U 22166AK  26167.21108929  .00000057  00000+0  10580-3 0  9996
2 54675  87.9266 244.1668 0002052  94.2127 265.9241 13.21825334171305
ONEWEB-0615             
1 54676U 22166AL  26167.26660508  .00000003  00000+0 -25237-4 0  9996
2 54676  87.9257 244.1706 0001859 105.5385 254.5955 13.21826293171328
ONEWEB-0655             
1 54677U 22166AM  26167.24305350  .00000048  00000+0  85013-4 0  9992
2 54677  87.9256 244.1771 0001826  94.9950 265.1392 13.21827146171313
ONEWEB-0659             
1 54678U 22166AN  26167.18417367  .00000070  00000+0  13712-3 0  9999
2 54678  87.9253 244.1881 0002083 100.9144 259.2225 13.21828294171394
ONEWEB-0685             
1 54679U 22166AP  26167.18427841  .00000072  00000+0  14179-3 0  9998
2 54679  87.9251 244.1803 0002039  88.5744 271.5624 13.21847676171288
ONEWEB-0712             
1 54680U 22166AQ  26167.22405484  .00000026  00000+0  34335-4 0  9990
2 54680  87.9100 228.9659 0001557  92.1652 267.9658 13.16593457171932
ONEWEB-0714             
1 54681U 22166AR  26167.18920941  .00000016  00000+0  80031-5 0  9990
2 54681  87.9255 244.1767 0001696  98.7870 261.3456 13.21824825171400
ONEWEB-0532             
1 55140U 23004A   26167.27357315 -.00000006  00000+0 -49288-4 0  9991
2 55140  87.9134   6.0465 0002211  87.9610 272.1775 13.17820878167467
ONEWEB-0533             
1 55141U 23004B   26167.23760817 -.00000316  00000+0 -91424-3 0  9995
2 55141  87.8943 350.8595 0001816  84.3252 275.8083 13.12444233167938
ONEWEB-0541             
1 55142U 23004C   26167.03784702  .00000491  00000+0  13494-2 0  9995
2 55142  87.8896  21.2868 0001871  90.3461 269.7881 13.11420117165792
ONEWEB-0543             
1 55143U 23004D   26167.17747721  .00000022  00000+0  24303-4 0  9994
2 55143  87.9160 335.6703 0001626  92.1344 267.9975 13.18685767169560
ONEWEB-0544             
1 55144U 23004E   26167.17073438  .00000057  00000+0  11287-3 0  9996
2 55144  87.9160 335.6714 0001724  98.6120 261.5208 13.18686029169566
ONEWEB-0560             
1 55145U 23004F   26167.16398876 -.00000005  00000+0 -45859-4 0  9990
2 55145  87.9162 335.6622 0001625  99.4199 260.7117 13.18687339169578
ONEWEB-0565             
1 55146U 23004G   26167.15724687 -.00000014  00000+0 -67786-4 0  9996
2 55146  87.9152 335.6916 0002020 104.0225 256.1131 13.18685295169560
ONEWEB-0567             
1 55147U 23004H   26167.22638162 -.00000026  00000+0 -98488-4 0  9993
2 55147  87.9160 335.6620 0001892 104.4255 255.7087 13.18685852169570
ONEWEB-0569             
1 55148U 23004J   26167.32252576  .00000165  00000+0  41570-3 0  9997
2 55148  87.8960 320.3916 0001607 126.3347 233.7930 13.13470628170063
ONEWEB-0570             
1 55149U 23004K   26167.21794059  .00000006  00000+0 -17074-4 0  9991
2 55149  87.9158 335.6615 0002239  94.7050 265.4338 13.18684365169567
ONEWEB-0571             
1 55150U 23004L   26167.21120060 -.00000029  00000+0 -10606-3 0  9997
2 55150  87.9158 335.6622 0002260 127.3886 232.7452 13.18687689169578
ONEWEB-0572             
1 55151U 23004M   26167.07654720  .00000054  00000+0  10520-3 0  9998
2 55151  87.9131   6.0865 0001926  93.9591 266.1761 13.17648923167330
ONEWEB-0573             
1 55152U 23004N   26167.20445475 -.00000046  00000+0 -14961-3 0  9995
2 55152  87.9160 335.6650 0002209 116.0666 244.0694 13.18685496169565
ONEWEB-0588             
1 55153U 23004P   26167.19770965  .00000043  00000+0  75739-4 0  9995
2 55153  87.9158 335.6665 0002359  97.1662 262.9738 13.18685027169568
ONEWEB-0598             
1 55154U 23004Q   26167.09209303 -.00000543  00000+0 -15676-2 0  9997
2 55154  87.8886  21.2870 0001654 109.0842 251.0465 13.11417809165759
ONEWEB-0599             
1 55155U 23004R   26167.26554729 -.00000036  00000+0 -12497-3 0  9998
2 55155  87.9132   6.0474 0001630  89.0058 271.1260 13.17648817167362
ONEWEB-0614             
1 55156U 23004S   26167.16329890 -.00000522  00000+0 -15086-2 0  9993
2 55156  87.8885  21.2814 0002019  82.0776 278.0582 13.11416115165703
ONEWEB-0616             
1 55157U 23004T   26167.07992953  .00000051  00000+0  97046-4 0  9993
2 55157  87.9133   6.0880 0000977  73.4334 286.6905 13.17648883167554
ONEWEB-0617             
1 55158U 23004U   26167.15144193 -.00000373  00000+0 -10885-2 0  9991
2 55158  87.8889  21.2745 0002239  84.9536 275.1848 13.11414520165724
ONEWEB-0618             
1 55159U 23004V   26167.00053950  .00003039  00000+0  16961-3 0  9998
2 55159  86.9086 178.1165 0009847 306.4523  53.5809 15.13131564182083
ONEWEB-0619             
1 55160U 23004W   26167.26386587 -.00000020  00000+0 -84189-4 0  9990
2 55160  87.9143   6.0321 0001958  75.4439 284.6910 13.17648905167477
ONEWEB-0620             
1 55161U 23004X   26167.29893711 -.00000343  00000+0 -10026-2 0  9991
2 55161  87.8883  21.2539 0001889  93.8396 266.2948 13.11414328165713
ONEWEB-0621             
1 55162U 23004Y   26167.09717936 -.00000365  00000+0 -10647-2 0  9997
2 55162  87.8897  21.2830 0002009  81.1768 278.9588 13.11418142165663
ONEWEB-0622             
1 55163U 23004Z   26167.10227269 -.00000012  00000+0 -69702-4 0  9992
2 55163  87.8897  21.2844 0002550  89.0308 271.1112 13.11419482165652
ONEWEB-0623             
1 55164U 23004AA  26167.25879446  .00000008  00000+0 -13121-4 0  9997
2 55164  87.9130   6.0633 0002538  77.5361 282.6054 13.17649896167461
ONEWEB-0624             
1 55165U 23004AB  26167.20417833  .00000210  00000+0  54490-3 0  9998
2 55165  87.8944 350.7808 0001883  87.9928 272.1417 13.12927497167944
ONEWEB-0625             
1 55166U 23004AC  26167.24867810  .00000010  00000+0 -63300-5 0  9998
2 55166  87.9134   6.0609 0001692  84.6433 275.4892 13.17649513167454
ONEWEB-0626             
1 55167U 23004AD  26167.08668299  .00000004  00000+0 -21991-4 0  9993
2 55167  87.9131   6.0928 0001868 101.7449 258.3892 13.17649904167431
ONEWEB-0627             
1 55168U 23004AE  26167.07485984  .00000050  00000+0  95840-4 0  9995
2 55168  87.9131   6.0957 0002286  80.8382 279.3008 13.17648492167435
ONEWEB-0628             
1 55169U 23004AF  26167.26146907  .00000415  00000+0  11174-2 0  9997
2 55169  87.8945 350.8372 0002339  78.5675 281.5716 13.12445544167919
ONEWEB-0629             
1 55170U 23004AG  26166.97444957  .00000043  00000+0  77164-4 0  9992
2 55170  87.9131   6.1118 0001907  78.0628 282.0718 13.17647671167425
ONEWEB-0631             
1 55171U 23004AH  26167.19096498  .00000026  00000+0  34181-4 0  9994
2 55171  87.9168 335.6337 0002233 102.5267 257.6115 13.18684594169544
